METHANESAT              
1 59101U 24043D   25202.91023055  .00002462  00000+0  22728-3 0  9992
2 59101  97.8045 328.8162 0011818  40.1355 320.0737 14.95518298 75240
GOSAT-GW (IBUKI GW)     
1 64694U 25141A   25202.92082987  .00000710  00000+0  13347-3 0  9996
2 64694  98.0259 141.2044 0001505  84.4564 275.6812 14.67570826  3406
GHGSAT-C1               
1 46278U 20061G   25203.18541324  .00012884  00000+0  21860-3 0  9998
2 46278  97.2501 277.1422 0002685 148.6277 211.5136 15.51622673272013
GHGSAT-C2               
1 47509U 21006DA  25202.71498539  .00004425  00000+0  14254-3 0  9994
2 47509  97.2664 250.7405 0004043 276.0950  83.9831 15.32704063249147
GHGSAT-C3               
1 52737U 22057F   25203.18288762  .00005124  00000+0  18623-3 0  9998
2 52737  97.6165 333.8378 0006317 196.9056 163.1973 15.28724706175025
GHGSAT-C4               
1 52746U 22057Q   25203.13566536  .00004956  00000+0  18026-3 0  9990
2 52746  97.6095 332.9482 0006889 183.1132 177.0065 15.28717022175029
GHGSAT-C5               
1 52744U 22057N   25203.21738232  .00005052  00000+0  18375-3 0  9996
2 52744  97.6251 335.0647 0007406 194.9662 165.1359 15.28703920175039
GHGSAT-C6               
1 56204U 23054AC  25203.16138952  .00008210  00000+0  19227-3 0  9992
2 56204  97.3284 104.3977 0010098 151.7474 208.4323 15.42320159127419
GHGSAT-C7               
1 56209U 23054AH  25203.17170059  .00006756  00000+0  16277-3 0  9997
2 56209  97.3244 103.9624 0010226 145.8360 214.3547 15.41534719127417
GHGSAT-C8               
1 56186U 23054J   25203.20115017  .00008302  00000+0  19440-3 0  9992
2 56186  97.3253 103.9239 0006797 165.1134 195.0315 15.42346611127405
SENTINEL-5P             
1 42969U 17064A   25203.11759648  .00000021  00000+0  30847-4 0  9999
2 42969  98.7587 143.1433 0001315  87.2848 272.8479 14.19533347402737
ENMAP                   
1 52159U 22033C   25202.92411562  .00000335  00000+0  57371-4 0  9990
2 52159  97.9784 284.9180 0001350  86.9250 273.2114 14.74963645177979
PRISMA                  
1 44072U 19015A   25203.21525602  .00000720  00000+0  93620-4 0  9990
2 44072  97.8742 277.7146 0001481  89.9725 270.1659 14.83683427343123
SENTINEL-2A             
1 40697U 15028A   25203.21472950  .00000091  00000+0  51527-4 0  9997
2 40697  98.5683 277.8006 0001174  94.1024 266.0293 14.30819022526540
SENTINEL-2B             
1 42063U 17013A   25203.20754029  .00000086  00000+0  49411-4 0  9994
2 42063  98.5686 277.7356 0001247  99.6301 260.5022 14.30820875437467
SENTINEL-2C             
1 60989U 24157A   25202.82316527  .00000077  00000+0  46077-4 0  9997
2 60989  98.5675 277.4311 0001204  97.4160 262.7160 14.30819297 45741
LANDSAT 8               
1 39084U 13008A   25203.20546025  .00000295  00000+0  75567-4 0  9991
2 39084  98.2241 273.2511 0001297  88.6529 271.4818 14.57106578661660
LANDSAT 9               
1 49260U 21088A   25203.17111042  .00000308  00000+0  78416-4 0  9999
2 49260  98.2262 273.2169 0001428  86.2363 273.8999 14.57103832202932
TANAGER-1               
1 60507U 24149AR  25202.20766813  .00009897  00000+0  22068-3 0  9995
2 60507  97.3963 286.9628 0009628 241.0585 118.9698 15.43737870 51977
